CCSDS_OMM_VERS = 2.0
CREATION_DATE  = 
ORIGINATOR     = 

OBJECT_NAME    = ATLAS CENTAUR 2
OBJECT_ID      = 1963-047A
CENTER_NAME    = EARTH
REF_FRAME      = TEME
TIME_SYSTEM    = UTC
MEAN_ELEMENT_THEORY = SGP/SGP4

EPOCH          = 2026-02-20T00:17:38.540832
MEAN_MOTION    = 14.12014003
ECCENTRICITY   = .05481427
INCLINATION    = 30.3574
RA_OF_ASC_NODE = 294.4324
ARG_OF_PERICENTER = 284.5043
MEAN_ANOMALY   = 69.5381

EPHEMERIS_TYPE = 0
CLASSIFICATION_TYPE = U
NORAD_CAT_ID   = 694
ELEMENT_SET_NO = 999
REV_AT_EPOCH   = 12912
BSTAR          = .13002592E-3
MEAN_MOTION_DOT = .1183E-4
MEAN_MOTION_DDOT = 0

CCSDS_OMM_VERS = 2.0
CREATION_DATE  = 
ORIGINATOR     = 

OBJECT_NAME    = THOR AGENA D R/B
OBJECT_ID      = 1964-002A
CENTER_NAME    = EARTH
REF_FRAME      = TEME
TIME_SYSTEM    = UTC
MEAN_ELEMENT_THEORY = SGP/SGP4

EPOCH          = 2026-02-20T15:17:12.671808
MEAN_MOTION    = 14.34008995
ECCENTRICITY   = .0032136
INCLINATION    = 99.1230
RA_OF_ASC_NODE = 64.0452
ARG_OF_PERICENTER = 309.3308
MEAN_ANOMALY   = 50.5028

EPHEMERIS_TYPE = 0
CLASSIFICATION_TYPE = U
NORAD_CAT_ID   = 733
ELEMENT_SET_NO = 999
REV_AT_EPOCH   = 23585
BSTAR          = .87442E-4
MEAN_MOTION_DOT = .196E-5
MEAN_MOTION_DDOT = 0

CCSDS_OMM_VERS = 2.0
CREATION_DATE  = 
ORIGINATOR     = 

OBJECT_NAME    = SL-3 R/B
OBJECT_ID      = 1964-053B
CENTER_NAME    = EARTH
REF_FRAME      = TEME
TIME_SYSTEM    = UTC
MEAN_ELEMENT_THEORY = SGP/SGP4

EPOCH          = 2026-02-20T07:25:42.458880
MEAN_MOTION    = 14.61348754
ECCENTRICITY   = .0078974
INCLINATION    = 65.0777
RA_OF_ASC_NODE = 22.1889
ARG_OF_PERICENTER = 297.7332
MEAN_ANOMALY   = 61.5774

EPHEMERIS_TYPE = 0
CLASSIFICATION_TYPE = U
NORAD_CAT_ID   = 877
ELEMENT_SET_NO = 999
REV_AT_EPOCH   = 26425
BSTAR          = .85674E-4
MEAN_MOTION_DOT = .317E-5
MEAN_MOTION_DDOT = 0

CCSDS_OMM_VERS = 2.0
CREATION_DATE  = 
ORIGINATOR     = 

OBJECT_NAME    = SL-8 R/B
OBJECT_ID      = 1967-045B
CENTER_NAME    = EARTH
REF_FRAME      = TEME
TIME_SYSTEM    = UTC
MEAN_ELEMENT_THEORY = SGP/SGP4

EPOCH          = 2026-02-20T08:14:47.305248
MEAN_MOTION    = 14.45603005
ECCENTRICITY   = .0063508
INCLINATION    = 74.0118
RA_OF_ASC_NODE = 20.4807
ARG_OF_PERICENTER = 30.9611
MEAN_ANOMALY   = 329.5266

EPHEMERIS_TYPE = 0
CLASSIFICATION_TYPE = U
NORAD_CAT_ID   = 2802
ELEMENT_SET_NO = 999
REV_AT_EPOCH   = 8651
BSTAR          = .10736E-3
MEAN_MOTION_DOT = .361E-5
MEAN_MOTION_DDOT = 0

CCSDS_OMM_VERS = 2.0
CREATION_DATE  = 
ORIGINATOR     = 

OBJECT_NAME    = SL-8 R/B
OBJECT_ID      = 1968-040B
CENTER_NAME    = EARTH
REF_FRAME      = TEME
TIME_SYSTEM    = UTC
MEAN_ELEMENT_THEORY = SGP/SGP4

EPOCH          = 2026-02-20T06:32:29.928768
MEAN_MOTION    = 15.03119709
ECCENTRICITY   = .0024697
INCLINATION    = 74.0332
RA_OF_ASC_NODE = 349.2761
ARG_OF_PERICENTER = 178.5811
MEAN_ANOMALY   = 181.5452

EPHEMERIS_TYPE = 0
CLASSIFICATION_TYPE = U
NORAD_CAT_ID   = 3230
ELEMENT_SET_NO = 999
REV_AT_EPOCH   = 8739
BSTAR          = .19066E-3
MEAN_MOTION_DOT = .2548E-4
MEAN_MOTION_DDOT = 0

CCSDS_OMM_VERS = 2.0
CREATION_DATE  = 
ORIGINATOR     = 

OBJECT_NAME    = OAO 2
OBJECT_ID      = 1968-110A
CENTER_NAME    = EARTH
REF_FRAME      = TEME
TIME_SYSTEM    = UTC
MEAN_ELEMENT_THEORY = SGP/SGP4

EPOCH          = 2026-02-20T06:14:39.076800
MEAN_MOTION    = 14.47296166
ECCENTRICITY   = .0004942
INCLINATION    = 34.9948
RA_OF_ASC_NODE = 2.5346
ARG_OF_PERICENTER = 54.6018
MEAN_ANOMALY   = 305.5134

EPHEMERIS_TYPE = 0
CLASSIFICATION_TYPE = U
NORAD_CAT_ID   = 3597
ELEMENT_SET_NO = 999
REV_AT_EPOCH   = 1657
BSTAR          = .63238E-4
MEAN_MOTION_DOT = .215E-5
MEAN_MOTION_DDOT = 0

CCSDS_OMM_VERS = 2.0
CREATION_DATE  = 
ORIGINATOR     = 

OBJECT_NAME    = ISIS 1
OBJECT_ID      = 1969-009A
CENTER_NAME    = EARTH
REF_FRAME      = TEME
TIME_SYSTEM    = UTC
MEAN_ELEMENT_THEORY = SGP/SGP4

EPOCH          = 2026-02-20T17:25:29.163072
MEAN_MOTION    = 11.30407812
ECCENTRICITY   = .1707833
INCLINATION    = 88.4555
RA_OF_ASC_NODE = 157.1570
ARG_OF_PERICENTER = 123.3873
MEAN_ANOMALY   = 254.2410

EPHEMERIS_TYPE = 0
CLASSIFICATION_TYPE = U
NORAD_CAT_ID   = 3669
ELEMENT_SET_NO = 999
REV_AT_EPOCH   = 34661
BSTAR          = .1049E-3
MEAN_MOTION_DOT = .17E-5
MEAN_MOTION_DDOT = 0

CCSDS_OMM_VERS = 2.0
CREATION_DATE  = 
ORIGINATOR     = 

OBJECT_NAME    = SERT 2
OBJECT_ID      = 1970-009A
CENTER_NAME    = EARTH
REF_FRAME      = TEME
TIME_SYSTEM    = UTC
MEAN_ELEMENT_THEORY = SGP/SGP4

EPOCH          = 2026-02-20T18:16:41.618784
MEAN_MOTION    = 13.58727903
ECCENTRICITY   = .0004382
INCLINATION    = 99.2738
RA_OF_ASC_NODE = 355.7835
ARG_OF_PERICENTER = 199.2067
MEAN_ANOMALY   = 219.5172

EPHEMERIS_TYPE = 0
CLASSIFICATION_TYPE = U
NORAD_CAT_ID   = 4327
ELEMENT_SET_NO = 999
REV_AT_EPOCH   = 77759
BSTAR          = .64798E-4
MEAN_MOTION_DOT = .6E-7
MEAN_MOTION_DDOT = 0

CCSDS_OMM_VERS = 2.0
CREATION_DATE  = 
ORIGINATOR     = 

OBJECT_NAME    = SL-3 R/B
OBJECT_ID      = 1971-028B
CENTER_NAME    = EARTH
REF_FRAME      = TEME
TIME_SYSTEM    = UTC
MEAN_ELEMENT_THEORY = SGP/SGP4

EPOCH          = 2026-02-20T17:25:32.258784
MEAN_MOTION    = 15.59634668
ECCENTRICITY   = .0015959
INCLINATION    = 81.2325
RA_OF_ASC_NODE = 72.9604
ARG_OF_PERICENTER = 354.0056
MEAN_ANOMALY   = 6.1002

EPHEMERIS_TYPE = 0
CLASSIFICATION_TYPE = U
NORAD_CAT_ID   = 5118
ELEMENT_SET_NO = 999
REV_AT_EPOCH   = 98602
BSTAR          = .39845E-3
MEAN_MOTION_DOT = .32032E-3
MEAN_MOTION_DDOT = 0

CCSDS_OMM_VERS = 2.0
CREATION_DATE  = 
ORIGINATOR     = 

OBJECT_NAME    = ASTEX 1
OBJECT_ID      = 1971-089A
CENTER_NAME    = EARTH
REF_FRAME      = TEME
TIME_SYSTEM    = UTC
MEAN_ELEMENT_THEORY = SGP/SGP4

EPOCH          = 2026-02-20T17:12:03.806208
MEAN_MOTION    = 14.50748670
ECCENTRICITY   = .0017221
INCLINATION    = 92.7143
RA_OF_ASC_NODE = 146.2696
ARG_OF_PERICENTER = 136.4973
MEAN_ANOMALY   = 223.7595

EPHEMERIS_TYPE = 0
CLASSIFICATION_TYPE = U
NORAD_CAT_ID   = 5560
ELEMENT_SET_NO = 999
REV_AT_EPOCH   = 85984
BSTAR          = .11333E-3
MEAN_MOTION_DOT = .445E-5
MEAN_MOTION_DDOT = 0

CCSDS_OMM_VERS = 2.0
CREATION_DATE  = 
ORIGINATOR     = 

OBJECT_NAME    = SL-8 R/B
OBJECT_ID      = 1971-119B
CENTER_NAME    = EARTH
REF_FRAME      = TEME
TIME_SYSTEM    = UTC
MEAN_ELEMENT_THEORY = SGP/SGP4

EPOCH          = 2026-02-20T12:54:21.981024
MEAN_MOTION    = 14.37302474
ECCENTRICITY   = .0551992
INCLINATION    = 73.8861
RA_OF_ASC_NODE = 207.7644
ARG_OF_PERICENTER = 177.9403
MEAN_ANOMALY   = 182.4228

EPHEMERIS_TYPE = 0
CLASSIFICATION_TYPE = U
NORAD_CAT_ID   = 5730
ELEMENT_SET_NO = 999
REV_AT_EPOCH   = 65302
BSTAR          = .78325E-3
MEAN_MOTION_DOT = .15102E-3
MEAN_MOTION_DDOT = 0

CCSDS_OMM_VERS = 2.0
CREATION_DATE  = 
ORIGINATOR     = 

OBJECT_NAME    = OAO 3 (COPERNICUS)
OBJECT_ID      = 1972-065A
CENTER_NAME    = EARTH
REF_FRAME      = TEME
TIME_SYSTEM    = UTC
MEAN_ELEMENT_THEORY = SGP/SGP4

EPOCH          = 2026-02-20T00:29:12.016608
MEAN_MOTION    = 14.59981344
ECCENTRICITY   = .00064011
INCLINATION    = 35.0065
RA_OF_ASC_NODE = 37.9818
ARG_OF_PERICENTER = 10.6969
MEAN_ANOMALY   = 32.0025

EPHEMERIS_TYPE = 0
CLASSIFICATION_TYPE = U
NORAD_CAT_ID   = 6153
ELEMENT_SET_NO = 999
REV_AT_EPOCH   = 84361
BSTAR          = .76446012E-4
MEAN_MOTION_DOT = .351E-5
MEAN_MOTION_DDOT = 0

