ATLAS CENTAUR 2         
1 00694U 63047A   26051.01225163  .00001183  00000+0  13003-3 0  9995
2 00694  30.3574 294.4324 0548142 284.5043  69.5381 14.12014003129124
THOR AGENA D R/B        
1 00733U 64002A   26051.63695222  .00000196  00000+0  87442-4 0  9998
2 00733  99.1230  64.0452 0032136 309.3308  50.5028 14.34008995235857
SL-3 R/B                
1 00877U 64053B   26051.30951920  .00000317  00000+0  85674-4 0  9997
2 00877  65.0777  22.1889 0078974 297.7332  61.5774 14.61348754264256
SL-8 R/B                
1 02802U 67045B   26051.34360307  .00000361  00000+0  10736-3 0  9993
2 02802  74.0118  20.4807 0063508  30.9611 329.5266 14.45603005 86519
SL-8 R/B                
1 03230U 68040B   26051.27256862  .00002548  00000+0  19066-3 0  9991
2 03230  74.0332 349.2761 0024697 178.5811 181.5452 15.03119709 87399
OAO 2                   
1 03597U 68110A   26051.26017450  .00000215  00000+0  63238-4 0  9992
2 03597  34.9948   2.5346 0004942  54.6018 305.5134 14.47296166 16572
ISIS 1                  
1 03669U 69009A   26051.72603198  .00000170  00000+0  10490-3 0  9992
2 03669  88.4555 157.1570 1707833 123.3873 254.2410 11.30407812346618
SERT 2                  
1 04327U 70009A   26051.76159281  .00000006  00000+0  64798-4 0  9998
2 04327  99.2738 355.7835 0004382 199.2067 219.5172 13.58727903777590
SL-3 R/B                
1 05118U 71028B   26051.72606781  .00032032  00000+0  39845-3 0  9995
2 05118  81.2325  72.9604 0015959 354.0056   6.1002 15.59634668986025
ASTEX 1                 
1 05560U 71089A   26051.71671072  .00000445  00000+0  11333-3 0  9992
2 05560  92.7143 146.2696 0017221 136.4973 223.7595 14.50748670859843
SL-8 R/B                
1 05730U 71119B   26051.53775441  .00015102  00000+0  78325-3 0  9990
2 05730  73.8861 207.7644 0551992 177.9403 182.4228 14.37302474653020
OAO 3 (COPERNICUS)      
1 06153U 72065A   26051.02027797  .00000351  00000+0  76446-4 0  9992
2 06153  35.0065  37.9818 0006401  10.6969  32.0025 14.59981344843616
